LANDSAT 9               
1 49260U 21088A   24174.18342668  .00000551  00000+0  13214-3 0  9990
2 49260  98.1871 243.7185 0001136 107.4756 252.6566 14.57142846145417
